start=new Date('2021-08-29T00:00:00.000Z').valueOf();
sats=[{"GP_ID":"183637723","CLASSIFICATION_TYPE":"U","CENTER_NAME":"EARTH","REV_AT_EPOCH":"5855","OBJECT_NAME":"STARLINK-1594","COUNTRY_CODE":"US","SEMIMAJOR_AXIS":"6925.317","RA_OF_ASC_NODE":"142.9300","REF_FRAME":"TEME","OBJECT_ID":"2020-057Z","MEAN_ELEMENT_THEORY":"SGP4","TLE_LINE1":"1 46140U 20057Z   21240.42129540  .00001549  00000-0  12284-3 0  9994","SITE":"AFETR","PERIAPSIS":"545.902","INCLINATION":"53.0549","OBJECT_TYPE":"PAYLOAD","ELEMENT_SET_NO":"999","MEAN_MOTION_DOT":"0.00001549","RCS_SIZE":"LARGE","PERIOD":"95.591","FILE":"3104555","TLE_LINE2":"2 46140  53.0549 142.9300 0001849  79.5665 280.5533 15.06410235 58558","MEAN_ANOMALY":"280.5533","NORAD_CAT_ID":"46140","LAUNCH_DATE":"2020-08-18","ARG_OF_PERICENTER":"79.5665","EPOCH":"2021-08-28T10:06:39.922560","MEAN_MOTION":"15.06410235","DECAY_DATE":null,"EPHEMERIS_TYPE":"0","APOAPSIS":"548.463","TIME_SYSTEM":"UTC","BSTAR":"0.00012284000000","ECCENTRICITY":"0.00018490","MEAN_MOTION_DDOT":"0.0000000000000"},{"NORAD_CAT_ID":"46141","LAUNCH_DATE":"2020-08-18","ARG_OF_PERICENTER":"78.8632","EPOCH":"2021-08-28T20:43:35.612832","MEAN_MOTION":"15.06406255","DECAY_DATE":null,"TIME_SYSTEM":"UTC","APOAPSIS":"548.646","EPHEMERIS_TYPE":"0","BSTAR":"0.00006883500000","MEAN_MOTION_DDOT":"0.0000000000000","ECCENTRICITY":"0.00020960","ELEMENT_SET_NO":"999","MEAN_MOTION_DOT":"0.00000744","RCS_SIZE":"LARGE","PERIOD":"95.592","FILE":"3104555","TLE_LINE2":"2 46141  53.0559 140.9428 0002096  78.8632 281.2592 15.06406255 57357","MEAN_ANOMALY":"281.2592","REF_FRAME":"TEME","OBJECT_ID":"2020-057AA","MEAN_ELEMENT_THEORY":"SGP4","SITE":"AFETR","TLE_LINE1":"1 46141U 20057AA  21240.86360663  .00000744  00000-0  68835-4 0  9996","PERIAPSIS":"545.743","INCLINATION":"53.0559","OBJECT_TYPE":"PAYLOAD","GP_ID":"183638471","CLASSIFICATION_TYPE":"U","CENTER_NAME":"EARTH","REV_AT_EPOCH":"5735","OBJECT_NAME":"STARLINK-1596","COUNTRY_CODE":"US","SEMIMAJOR_AXIS":"6925.329","RA_OF_ASC_NODE":"140.9428"},{"OBJECT_ID":"2020-057AB","MEAN_ELEMENT_THEORY":"SGP4","REF_FRAME":"TEME","OBJECT_TYPE":"PAYLOAD","PERIAPSIS":"546.139","TLE_LINE1":"1 46142U 20057AB  21240.55031181 -.00001086  00000-0 -54032-4 0  9999","SITE":"AFETR","INCLINATION":"53.0559","REV_AT_EPOCH":"5674","CENTER_NAME":"EARTH","OBJECT_NAME":"STARLINK-1597","GP_ID":"183637468","CLASSIFICATION_TYPE":"U","RA_OF_ASC_NODE":"182.3336","COUNTRY_CODE":"US","SEMIMAJOR_AXIS":"6925.347","LAUNCH_DATE":"2020-08-18","ARG_OF_PERICENTER":"68.7035","NORAD_CAT_ID":"46142","BSTAR":"-0.00005403200000","MEAN_MOTION_DDOT":"0.0000000000000","ECCENTRICITY":"0.00015490","MEAN_MOTION":"15.06400455","EPOCH":"2021-08-28T13:12:26.940384","APOAPSIS":"548.285","EPHEMERIS_TYPE":"0","TIME_SYSTEM":"UTC","DECAY_DATE":null,"RCS_SIZE":"LARGE","PERIOD":"95.592","FILE":"3104555","ELEMENT_SET_NO":"999","MEAN_MOTION_DOT":"-0.00001086","MEAN_ANOMALY":"291.4119","TLE_LINE2":"2 46142  53.0559 182.3336 0001549  68.7035 291.4119 15.06400455 56749"},{"ELEMENT_SET_NO":"999","MEAN_MOTION_DOT":"0.00003023","RCS_SIZE":"LARGE","PERIOD":"95.591","FILE":"3104555","TLE_LINE2":"2 46143  53.0544 160.9973 0001740  78.1582 281.9602 15.06413261 57075","MEAN_ANOMALY":"281.9602","NORAD_CAT_ID":"46143","LAUNCH_DATE":"2020-08-18","ARG_OF_PERICENTER":"78.1582","MEAN_MOTION":"15.06413261","EPOCH":"2021-08-28T20:24:59.996160","APOAPSIS":"548.378","TIME_SYSTEM":"UTC","EPHEMERIS_TYPE":"0","DECAY_DATE":null,"BSTAR":"0.00022168000000","MEAN_MOTION_DDOT":"0.0000000000000","ECCENTRICITY":"0.00017400","CLASSIFICATION_TYPE":"U","GP_ID":"183637473","CENTER_NAME":"EARTH","REV_AT_EPOCH":"5707","OBJECT_NAME":"STARLINK-1599","COUNTRY_CODE":"US","SEMIMAJOR_AXIS":"6925.308","RA_OF_ASC_NODE":"160.9973","REF_FRAME":"TEME","OBJECT_ID":"2020-057AC","MEAN_ELEMENT_THEORY":"SGP4","PERIAPSIS":"545.968","TLE_LINE1":"1 46143U 20057AC  21240.85069440  .00003023  00000-0  22168-3 0  9997","SITE":"AFETR","INCLINATION":"53.0544","OBJECT_TYPE":"PAYLOAD"},{"OBJECT_NAME":"STARLINK-1606","REV_AT_EPOCH":"4527","CENTER_NAME":"EARTH","GP_ID":"183638223","CLASSIFICATION_TYPE":"U","RA_OF_ASC_NODE":"162.5006","SEMIMAJOR_AXIS":"6925.297","COUNTRY_CODE":"US","OBJECT_ID":"2020-057AD","MEAN_ELEMENT_THEORY":"SGP4","REF_FRAME":"TEME","OBJECT_TYPE":"PAYLOAD","PERIAPSIS":"545.926","TLE_LINE1":"1 46144U 20057AD  21240.51527939  .00003712  00000-0  26787-3 0  9999","SITE":"AFETR","INCLINATION":"53.0546","PERIOD":"95.591","RCS_SIZE":"LARGE","FILE":"3104555","ELEMENT_SET_NO":"999","MEAN_MOTION_DOT":"0.00003712","MEAN_ANOMALY":"303.9616","TLE_LINE2":"2 46144  53.0546 162.5006 0001784  56.1543 303.9616 15.06416948 45278","LAUNCH_DATE":"2020-08-18","ARG_OF_PERICENTER":"56.1543","NORAD_CAT_ID":"46144","BSTAR":"0.00026787000000","ECCENTRICITY":"0.00017840","MEAN_MOTION_DDOT":"0.0000000000000","MEAN_MOTION":"15.06416948","EPOCH":"2021-08-28T12:22:00.139296","EPHEMERIS_TYPE":"0","APOAPSIS":"548.397","TIME_SYSTEM":"UTC","DECAY_DATE":null},{"OBJECT_TYPE":"PAYLOAD","PERIAPSIS":"354.043","SITE":"AFETR","TLE_LINE1":"1 46145U 20057AE  21240.44568569  .00049423  00000-0  38034-3 0  9993","INCLINATION":"53.0520","OBJECT_ID":"2020-057AE","MEAN_ELEMENT_THEORY":"SGP4","REF_FRAME":"TEME","RA_OF_ASC_NODE":"148.7234","COUNTRY_CODE":"US","SEMIMAJOR_AXIS":"6732.655","CENTER_NAME":"EARTH","REV_AT_EPOCH":"5847","OBJECT_NAME":"STARLINK-1607","CLASSIFICATION_TYPE":"U","GP_ID":"183638971","BSTAR":"0.00038034000000","MEAN_MOTION_DDOT":"0.0000000000000","ECCENTRICITY":"0.00007080","MEAN_MOTION":"15.71532120","EPOCH":"2021-08-28T10:41:47.243616","APOAPSIS":"354.996","TIME_SYSTEM":"UTC","EPHEMERIS_TYPE":"0","DECAY_DATE":null,"LAUNCH_DATE":"2020-08-18","ARG_OF_PERICENTER":"91.8645","NORAD_CAT_ID":"46145","MEAN_ANOMALY":"268.2453","TLE_LINE2":"2 46145  53.0520 148.7234 0000708  91.8645 268.2453 15.71532120 58475","PERIOD":"91.630","RCS_SIZE":"LARGE","FILE":"3104555","ELEMENT_SET_NO":"999","MEAN_MOTION_DOT":"0.00049423"},{"MEAN_MOTION_DOT":"0.00001040","ELEMENT_SET_NO":"999","FILE":"3104555","RCS_SIZE":"LARGE","PERIOD":"95.591","TLE_LINE2":"2 46146  53.0550 180.8126 0001544  61.3551 298.7593 15.06413663 56809","MEAN_ANOMALY":"298.7593","NORAD_CAT_ID":"46146","ARG_OF_PERICENTER":"61.3551","LAUNCH_DATE":"2020-08-18","DECAY_DATE":null,"APOAPSIS":"548.241","TIME_SYSTEM":"UTC","EPHEMERIS_TYPE":"0","EPOCH":"2021-08-28T21:26:03.176448","MEAN_MOTION":"15.06413663","ECCENTRICITY":"0.00015440","MEAN_MOTION_DDOT":"0.0000000000000","BSTAR":"0.00008868100000","CLASSIFICATION_TYPE":"U","GP_ID":"183638721","REV_AT_EPOCH":"5680","OBJECT_NAME":"STARLINK-1608","CENTER_NAME":"EARTH","COUNTRY_CODE":"US","SEMIMAJOR_AXIS":"6925.307","RA_OF_ASC_NODE":"180.8126","REF_FRAME":"TEME","MEAN_ELEMENT_THEORY":"SGP4","OBJECT_ID":"2020-057AF","INCLINATION":"53.0550","TLE_LINE1":"1 46146U 20057AF  21240.89309232  .00001040  00000-0  88681-4 0  9990","SITE":"AFETR","PERIAPSIS":"546.102","OBJECT_TYPE":"PAYLOAD"},{"REF_FRAME":"TEME","MEAN_ELEMENT_THEORY":"SGP4","OBJECT_ID":"2020-057AG","INCLINATION":"53.0548","PERIAPSIS":"546.010","TLE_LINE1":"1 46147U 20057AG  21240.54293502  .00000031  00000-0  20965-4 0  9995","SITE":"AFETR","OBJECT_TYPE":"PAYLOAD","GP_ID":"183637973","CLASSIFICATION_TYPE":"U","OBJECT_NAME":"STARLINK-1611","REV_AT_EPOCH":"5800","CENTER_NAME":"EARTH","SEMIMAJOR_AXIS":"6925.323","COUNTRY_CODE":"US","RA_OF_ASC_NODE":"182.3817","NORAD_CAT_ID":"46147","ARG_OF_PERICENTER":"55.6176","LAUNCH_DATE":"2020-08-18","TIME_SYSTEM":"UTC","APOAPSIS":"548.366","EPHEMERIS_TYPE":"0","DECAY_DATE":null,"MEAN_MOTION":"15.06408454","EPOCH":"2021-08-28T13:01:49.585728","MEAN_MOTION_DDOT":"0.0000000000000","ECCENTRICITY":"0.00017010","BSTAR":"0.00002096500000","MEAN_MOTION_DOT":"0.00000031","ELEMENT_SET_NO":"999","FILE":"3104555","PERIOD":"95.592","RCS_SIZE":"LARGE","TLE_LINE2":"2 46147  53.0548 182.3817 0001701  55.6176 304.4974 15.06408454 58009","MEAN_ANOMALY":"304.4974"},{"TLE_LINE2":"2 46148  53.0534 162.6495 0001888  71.0257 289.0937 15.06408948 57011","MEAN_ANOMALY":"289.0937","MEAN_MOTION_DOT":"0.00001318","ELEMENT_SET_NO":"999","FILE":"3104555","RCS_SIZE":"LARGE","PERIOD":"95.592","DECAY_DATE":null,"APOAPSIS":"548.494","EPHEMERIS_TYPE":"0","TIME_SYSTEM":"UTC","EPOCH":"2021-08-28T11:34:14.621088","MEAN_MOTION":"15.06408948","ECCENTRICITY":"0.00018880","MEAN_MOTION_DDOT":"0.0000000000000","BSTAR":"0.00010736000000","NORAD_CAT_ID":"46148","ARG_OF_PERICENTER":"71.0257","LAUNCH_DATE":"2020-08-18","COUNTRY_CODE":"US","SEMIMAJOR_AXIS":"6925.321","RA_OF_ASC_NODE":"162.6495","GP_ID":"183637724","CLASSIFICATION_TYPE":"U","CENTER_NAME":"EARTH","REV_AT_EPOCH":"5701","OBJECT_NAME":"STARLINK-1616","INCLINATION":"53.0534","SITE":"AFETR","TLE_LINE1":"1 46148U 20057AH  21240.48211367  .00001318  00000-0  10736-3 0  9991","PERIAPSIS":"545.879","OBJECT_TYPE":"PAYLOAD","REF_FRAME":"TEME","MEAN_ELEMENT_THEORY":"SGP4","OBJECT_ID":"2020-057AH"},{"TLE_LINE1":"1 46149U 20057AJ  21240.49686264  .00000515  00000-0  53450-4 0  9994","SITE":"AFETR","PERIAPSIS":"545.966","INCLINATION":"53.0544","OBJECT_TYPE":"PAYLOAD","REF_FRAME":"TEME","OBJECT_ID":"2020-057AJ","MEAN_ELEMENT_THEORY":"SGP4","COUNTRY_CODE":"US","SEMIMAJOR_AXIS":"6925.351","RA_OF_ASC_NODE":"162.5871","GP_ID":"183638472","CLASSIFICATION_TYPE":"U","OBJECT_NAME":"STARLINK-1620","REV_AT_EPOCH":"5829","CENTER_NAME":"EARTH","EPOCH":"2021-08-28T11:55:28.932096","MEAN_MOTION":"15.06399342","DECAY_DATE":null,"APOAPSIS":"548.465","EPHEMERIS_TYPE":"0","TIME_SYSTEM":"UTC","BSTAR":"0.00005345000000","MEAN_MOTION_DDOT":"0.0000000000000","ECCENTRICITY":"0.00018040","NORAD_CAT_ID":"46149","LAUNCH_DATE":"2020-08-18","ARG_OF_PERICENTER":"63.1764","TLE_LINE2":"2 46149  53.0544 162.5871 0001804  63.1764 296.9410 15.06399342 58294","MEAN_ANOMALY":"296.9410","ELEMENT_SET_NO":"999","MEAN_MOTION_DOT":"0.00000515","PERIOD":"95.592","RCS_SIZE":"LARGE","FILE":"3104555"}];
